{
  "type": "FeatureCollection",
  "features": [
    {
      "type": "Feature",
      "properties": {
        "id": "f_5d6c88c031894200135e3777",
        "externalId": "MAP-VBIUVW1J",
        "elevation": 0,
        "name": "Village Map",
        "shortName": "Map"
      },
      "geometry": {
        "type": "MultiPolygon",
        "coordinates": [
          [
            [
              [
                2.341354247976313,
                41.60775976033716
              ],
              [
                2.3414057162893247,
                41.607730051284456
              ],
              [
                2.3414538090609347,
                41.60770162889876
              ],
              [
                2.3415247872279723,
                41.607768829069386
              ],
              [
                2.341424067232252,
                41.60782676025192
              ],
              [
                2.341354247976313,
                41.60775976033716
              ]
            ]
          ],
          [
            [
              [
                2.3414534839458594,
                41.6081939589234
              ],
              [
                2.341536584303943,
                41.60814843616031
              ],
              [
                2.341552338404526,
                41.60813911175455
              ],
              [
                2.3415528001747026,
                41.60813883844514
              ],
              [
                2.3415485798831885,
                41.6081217803336
              ],
              [
                2.3418934204337187,
                41.607916123316805
              ],
              [
                2.341908089434671,
                41.60792854425418
              ],
              [
                2.341912744618378,
                41.60792578887541
              ],
              [
                2.342041837123067,
                41.608047906305025
              ],
              [
                2.3421841245245236,
                41.60795923638239
              ],
              [
                2.3425728367277063,
                41.608327290872154
              ],
              [
                2.342568472129676,
                41.60832987367248
              ],
              [
                2.3425798185365276,
                41.60834062841603
              ],
              [
                2.342355680383998,
                41.6084730938494
              ],
              [
                2.342965938693393,
                41.60904638511181
              ],
              [
                2.342826425013257,
                41.60912883754094
              ],
              [
                2.3429004195972367,
                41.609194733763154
              ],
              [
                2.342901037441629,
                41.60919531512738
              ],
              [
                2.342935226196273,
                41.60917494922317
              ],
              [
                2.3433492670812,
                41.609566599542866
              ],
              [
                2.3432832044782472,
                41.6096056425696
              ],
              [
                2.3441592064131886,
                41.610442678467294
              ],
              [
                2.344211037539136,
                41.610412683399744
              ],
              [
                2.3442150560425405,
                41.610416570059606
              ],
              [
                2.344243146332362,
                41.61039974076859
              ],
              [
                2.344657963327702,
                41.610792105545926
              ],
              [
                2.3445518950817843,
                41.610854792589855
              ],
              [
                2.3446804033620583,
                41.61097396580143
              ],
              [
                2.344838541179545,
                41.611211835459436
              ],
              [
                2.344999775823646,
                41.611574926245886
              ],
              [
                2.3451278851831945,
                41.61168373418969
              ],
              [
                2.3451315618274395,
                41.61168660021332
              ],
              [
                2.3451817947497555,
                41.61165470972192
              ],
              [
                2.3456805568511814,
                41.612058751400056
              ],
              [
                2.3456873128195697,
                41.61206643405105
              ],
              [
                2.3456894507355592,
                41.61207442185935
              ],
              [
                2.3456881151372744,
                41.61208230552348
              ],
              [
                2.3456844555881062,
                41.612089666544804
              ],
              [
                2.3456796149028256,
                41.61209610727443
              ],
              [
                2.345674741769379,
                41.612101215439786
              ],
              [
                2.3456731797574646,
                41.6121025698878
              ],
              [
                2.345711986477014,
                41.61213327046005
              ],
              [
                2.3457293611661165,
                41.61214686713671
              ],
              [
                2.3457293594822826,
                41.61214694973645
              ],
              [
                2.3457332545365315,
                41.61214987764104
              ],
              [
                2.3457348443659223,
                41.61215138133773
              ],
              [
                2.3457310029380074,
                41.612338174150054
              ],
              [
                2.3452907910801786,
                41.61265166896681
              ],
              [
                2.3452734518595206,
                41.61277664496905
              ],
              [
                2.3456070702091685,
                41.61323141214244
              ],
              [
                2.3456451468997868,
                41.613476397185075
              ],
              [
                2.345643850287729,
                41.6134953288911
              ],
              [
                2.3456369804329906,
                41.61351234907296
              ],
              [
                2.34562629624816,
                41.613527374290165
              ],
              [
                2.345613924753668,
                41.613539997322896
              ],
              [
                2.3456010127451625,
                41.61355049649308
              ],
              [
                2.3455893741057823,
                41.613558437186306
              ],
              [
                2.3455807169520764,
                41.61356355352744
              ],
              [
                2.345574319233963,
                41.61356690962916
              ],
              [
                2.3455726865457853,
                41.61356707900812
              ],
              [
                2.345576725452506,
                41.61358849703056
              ],
              [
                2.345032973128353,
                41.61363557439382
              ],
              [
                2.3449979937468597,
                41.613602490285956
              ],
              [
                2.3449943852647075,
                41.61360289652645
              ],
              [
                2.3449951290483178,
                41.613606922970014
              ],
              [
                2.3448975805995422,
                41.61361550684246
              ],
              [
                2.3448413720582457,
                41.613475134098046
              ],
              [
                2.3442878038844865,
                41.61263878970503
              ],
              [
                2.344342386345489,
                41.61232455589709
              ],
              [
                2.3435492336553567,
                41.61121412237974
              ],
              [
                2.343255848370361,
                41.61093661188258
              ],
              [
                2.3426994430298795,
                41.61002528947006
              ],
              [
                2.3415805612140934,
                41.60858941742202
              ],
              [
                2.3414534839458594,
                41.6081939589234
              ]
            ],
            [
              [
                2.345271221539517,
                41.61299011002729
              ],
              [
                2.3453087335025335,
                41.613039499808544
              ],
              [
                2.3453506251288614,
                41.61302178765656
              ],
              [
                2.3453131993275096,
                41.61297241329923
              ],
              [
                2.345271221539517,
                41.61299011002729
              ]
            ]
          ],
          [
            [
              [
                2.341924586257553,
                41.6075323473346
              ],
              [
                2.3419247569903714,
                41.60752979667771
              ],
              [
                2.3419253787024656,
                41.607527284480234
              ],
              [
                2.3419267038832703,
                41.60752466307719
              ],
              [
                2.341928880282688,
                41.60752245875191
              ],
              [
                2.341931254901694,
                41.60752044226568
              ],
              [
                2.3419344797633004,
                41.60751884291766
              ],
              [
                2.3419392594017423,
                41.60751755086923
              ],
              [
                2.3419427259016836,
                41.60751734194669
              ],
              [
                2.3419433352683834,
                41.60751636872477
              ],
              [
                2.3419465701804545,
                41.60751323020002
              ],
              [
                2.341947578438337,
                41.607512634319654
              ],
              [
                2.341953617348811,
                41.60751059700259
              ],
              [
                2.341957134743935,
                41.60751004938251
              ],
              [
                2.341960799037188,
                41.60751002855131
              ],
              [
                2.341964157741251,
                41.6075104933113
              ],
              [
                2.341967663432536,
                41.60751148428711
              ],
              [
                2.3419704127704835,
                41.60751292226897
              ],
              [
                2.3419731090098095,
                41.60751469817538
              ],
              [
                2.341975248679711,
                41.6075171100772
              ],
              [
                2.3419760872184745,
                41.60751906581071
              ],
              [
                2.341978344024201,
                41.60751926319887
              ],
              [
                2.3419805482825544,
                41.60751979870519
              ],
              [
                2.3419844528668348,
                41.607521167022625
              ],
              [
                2.3419863523355806,
                41.60752218920296
              ],
              [
                2.3419880003266975,
                41.6075233600067
              ],
              [
                2.341989395436129,
                41.60752467974524
              ],
              [
                2.3419914820083116,
                41.607527429571356
              ],
              [
                2.3419921736492113,
                41.60752885851581
              ],
              [
                2.3419930929353603,
                41.607533216283265
              ],
              [
                2.3419920070359486,
                41.60753722587927
              ],
              [
                2.341993349597736,
                41.607538883735344
              ],
              [
                2.3419946359888772,
                41.60754087562616
              ],
              [
                2.341995368171948,
                41.60754350574774
              ],
              [
                2.341995197441885,
                41.60754605640472
              ],
              [
                2.341994575394359,
                41.60754856828286
              ],
              [
                2.341993250216512,
                41.60755118968733
              ],
              [
                2.341991073818325,
                41.60755339401383
              ],
              [
                2.3419886995372527,
                41.60755541082035
              ],
              [
                2.3419854743378856,
                41.60755700985082
              ],
              [
                2.3419806946974457,
                41.607558301901165
              ],
              [
                2.341978583865009,
                41.607558629772306
              ],
              [
                2.3419773653459024,
                41.60756057609107
              ],
              [
                2.341974938909092,
                41.60756292974577
              ],
              [
                2.3419736783185012,
                41.607563674754644
              ],
              [
                2.341967891858938,
                41.60756556339016
              ],
              [
                2.3419645735687653,
                41.60756629936163
              ],
              [
                2.341961360747407,
                41.60756636043397
              ],
              [
                2.341958200687815,
                41.60756608326141
              ],
              [
                2.341955093672003,
                41.60756546975297
              ],
              [
                2.341952092854226,
                41.607564180394085
              ],
              [
                2.341949595845856,
                41.60756259328408
              ],
              [
                2.3419474036278114,
                41.6075605195
              ],
              [
                2.341944389914536,
                41.60756076892295
              ],
              [
                2.341941429301752,
                41.607560680421386
              ],
              [
                2.3419385210568744,
                41.607560254944524
              ],
              [
                2.3419361173508597,
                41.6075595307671
              ],
              [
                2.3419337671172187,
                41.60755847000061
              ],
              [
                2.3419314695552504,
                41.607557071561025
              ],
              [
                2.341929423898044,
                41.60755552424592
              ],
              [
                2.341927683458656,
                41.607553490005266
              ],
              [
                2.3419265938147373,
                41.60755168423014
              ],
              [
                2.341925954722743,
                41.60754991716708
              ],
              [
                2.3419253801326505,
                41.60754627428007
              ],
              [
                2.34192569726795,
                41.60754424863044
              ],
              [
                2.3419273811368355,
                41.60754080371211
              ],
              [
                2.3419285484240238,
                41.607539195771906
              ],
              [
                2.3419267540862387,
                41.60753749837125
              ],
              [
                2.3419253184378537,
                41.607534977455444
              ],
              [
                2.341924586257553,
                41.6075323473346
              ]
            ]
          ],
          [
            [
              [
                2.3425115328064936,
                41.60803323922754
              ],
              [
                2.3425307087601213,
                41.608021906175416
              ],
              [
                2.3426969652403615,
                41.608165751060795
              ],
              [
                2.3443173224775307,
                41.60970041493406
              ],
              [
                2.3443178185317466,
                41.609702555486045
              ],
              [
                2.344318537543768,
                41.60970822237958
              ],
              [
                2.344318565806318,
                41.60971159769724
              ],
              [
                2.3443182426881886,
                41.60971523385106
              ],
              [
                2.3443174713290587,
                41.609719055300296
              ],
              [
                2.344316153680979,
                41.60972298668971
              ],
              [
                2.3443141922868285,
                41.609726952569865
              ],
              [
                2.34267778927231,
                41.608177084141076
              ],
              [
                2.3425115328064936,
                41.60803323922754
              ]
            ]
          ],
          [
            [
              [
                2.344374935078449,
                41.60978830567858
              ],
              [
                2.344380542669291,
                41.60978811744813
              ],
              [
                2.3443865220243385,
                41.609788311707014
              ],
              [
                2.3443927499509463,
                41.609788996017706
              ],
              [
                2.3443991026562694,
                41.60979027803617
              ],
              [
                2.344405456518595,
                41.609792265577525
              ],
              [
                2.3444116880049637,
                41.60979506588501
              ],
              [
                2.344417673236332,
                41.60979878718618
              ],
              [
                2.344423289060882,
                41.60980353675825
              ],
              [
                2.345116852989258,
                41.6104547362046
              ],
              [
                2.3451778694932024,
                41.6105208948022
              ],
              [
                2.3452686538218197,
                41.610625469520144
              ],
              [
                2.345322709648756,
                41.61069120295223
              ],
              [
                2.3453797113649193,
                41.61076381462363
              ],
              [
                2.345437535652462,
                41.61084173876312
              ],
              [
                2.345438659448815,
                41.6108468674484
              ],
              [
                2.3454390726687286,
                41.61085081745728
              ],
              [
                2.3454392168192153,
                41.610855862747535
              ],
              [
                2.345438919166253,
                41.61086198922189
              ],
              [
                2.345438006938772,
                41.6108691817618
              ],
              [
                2.3454363067254493,
                41.610877425632324
              ],
              [
                2.3453575744351065,
                41.61077088515882
              ],
              [
                2.3452639582554298,
                41.61065117389408
              ],
              [
                2.3452126588736664,
                41.610589468858805
              ],
              [
                2.345161853565599,
                41.61053220033183
              ],
              [
                2.3451141571813867,
                41.61048361988909
              ],
              [
                2.344374935078449,
                41.60978830567858
              ]
            ]
          ],
          [
            [
              [
                2.345483088104639,
                41.61278355731611
              ],
              [
                2.345485117091635,
                41.61276130354313
              ],
              [
                2.3454851194612756,
                41.61276128609126
              ],
              [
                2.345486916916809,
                41.61275156555308
              ],
              [
                2.3454892620922383,
                41.612741950381725
              ],
              [
                2.3454921553838526,
                41.61273246762805
              ],
              [
                2.345495570266059,
                41.61272312689859
              ],
              [
                2.345499511125856,
                41.61271393922338
              ],
              [
                2.3454995301752586,
                41.612713897810615
              ],
              [
                2.3455039480917947,
                41.6127049088767
              ],
              [
                2.3455089106542357,
                41.61269605432259
              ],
              [
                2.345514370611431,
                41.61268738121421
              ],
              [
                2.345520872380534,
                41.612734386976506
              ],
              [
                2.3455184695404725,
                41.61274160460366
              ],
              [
                2.3455155148223916,
                41.61275259828393
              ],
              [
                2.3455133523656846,
                41.612763774189176
              ],
              [
                2.34551152224566,
                41.612783920199284
              ],
              [
                2.3455123263053763,
                41.61280387877914
              ],
              [
                2.34551572113355,
                41.612823535537515
              ],
              [
                2.3455216633180673,
                41.61284277608228
              ],
              [
                2.3455301096573713,
                41.61286148589666
              ],
              [
                2.3455410165266297,
                41.61287955071266
              ],
              [
                2.345554340281354,
                41.612896855757334
              ],
              [
                2.345570037614442,
                41.61291328657427
              ],
              [
                2.3455796799495707,
                41.612921916595916
              ],
              [
                2.3455898605991585,
                41.61293008427428
              ],
              [
                2.3456005556032284,
                41.61293777990916
              ],
              [
                2.3456117415377986,
                41.61294499348359
              ],
              [
                2.345623394443687,
                41.612951715296866
              ],
              [
                2.3456354911257256,
                41.61295793571516
              ],
              [
                2.345648007627096,
                41.61296364503738
              ],
              [
                2.345660920183902,
                41.61296883292793
              ],
              [
                2.3456750634178647,
                41.61297570286314
              ],
              [
                2.3456879500208387,
                41.61298253274699
              ],
              [
                2.345699395294268,
                41.612989059306564
              ],
              [
                2.345709215661843,
                41.61299502016396
              ],
              [
                2.3457172263195005,
                41.61300015210943
              ],
              [
                2.3457285603931863,
                41.613007946226375
              ],
              [
                2.3457339594296926,
                41.61301351940179
              ],
              [
                2.345739608822504,
                41.613020566602984
              ],
              [
                2.34574625760817,
                41.61303053530597
              ],
              [
                2.3457531782241383,
                41.61304348411017
              ],
              [
                2.3457596436898718,
                41.6130594728273
              ],
              [
                2.3457649262099394,
                41.613078559676715
              ],
              [
                2.345768298911243,
                41.61310080440572
              ],
              [
                2.3457954282711717,
                41.61360916736348
              ],
              [
                2.3457627926404996,
                41.61361025777836
              ],
              [
                2.3457337774559996,
                41.6131024358044
              ],
              [
                2.34572689698427,
                41.61307575392867
              ],
              [
                2.3457151394517486,
                41.61305236729844
              ],
              [
                2.3457002498919595,
                41.61303233594754
              ],
              [
                2.3456839732271293,
                41.61301571997627
              ],
              [
                2.3456680520764666,
                41.61300258267997
              ],
              [
                2.3456680386644018,
                41.6130025725346
              ],
              [
                2.345654240856989,
                41.612992977185016
              ],
              [
                2.3456442749871567,
                41.61298697056695
              ],
              [
                2.345639903376694,
                41.61298462132617
              ],
              [
                2.3456268140226513,
                41.6129789829082
              ],
              [
                2.3456141866106,
                41.6129728842282
              ],
              [
                2.345601967380003,
                41.61296630363565
              ],
              [
                2.3455901773015,
                41.61295924948284
              ],
              [
                2.3455788372419613,
                41.612951730186566
              ],
              [
                2.3455679689735107,
                41.612943755183764
              ],
              [
                2.3455576298291807,
                41.6129353533166
              ],
              [
                2.345557599990271,
                41.612935327743294
              ],
              [
                2.345547730349084,
                41.61292647019635
              ],
              [
                2.3455303904461253,
                41.612908319625745
              ],
              [
                2.345515672749454,
                41.61288920287233
              ],
              [
                2.3455036353203234,
                41.61286924287142
              ],
              [
                2.3455036248502705,
                41.612869222959496
              ],
              [
                2.34549431290775,
                41.61284859274175
              ],
              [
                2.345494306026359,
                41.61284857460333
              ],
              [
                2.345487730662698,
                41.61282732084663
              ],
              [
                2.345487728149216,
                41.612827310388624
              ],
              [
                2.345483983968447,
                41.61280562311999
              ],
              [
                2.3454839820925932,
                41.61280560557139
              ],
              [
                2.345483088104639,
                41.61278355731611
              ]
            ]
          ],
          [
            [
              [
                2.3455072862503106,
                41.610996743736436
              ],
              [
                2.345517567005293,
                41.61100185604463
              ],
              [
                2.3455264089500636,
                41.61100724399284
              ],
              [
                2.3455338399182706,
                41.61101260843823
              ],
              [
                2.3455398782600616,
                41.61101765636111
              ],
              [
                2.3455445425045025,
                41.61102209359816
              ],
              [
                2.3455478510926215,
                41.61102562655846
              ],
              [
                2.345550475603136,
                41.61102880547773
              ],
              [
                2.3455833606980483,
                41.61109417930042
              ],
              [
                2.3456305268607065,
                41.611193705594985
              ],
              [
                2.3456852349065143,
                41.61131928886915
              ],
              [
                2.3457120284153326,
                41.611386843882606
              ],
              [
                2.345736263524015,
                41.611457603511674
              ],
              [
                2.345757137697736,
                41.61153109906417
              ],
              [
                2.345774691648275,
                41.611603579585974
              ],
              [
                2.345788964429138,
                41.61167129354303
              ],
              [
                2.345807827010758,
                41.611777417748456
              ],
              [
                2.345814043592818,
                41.611819461214296
              ],
              [
                2.3458158206646877,
                41.61182949098149
              ],
              [
                2.345815520837668,
                41.61183766660448
              ],
              [
                2.3458134786107525,
                41.61184417059903
              ],
              [
                2.3458100271686253,
                41.611849185221125
              ],
              [
                2.3458055012562684,
                41.611852893878314
              ],
              [
                2.3458002348253104,
                41.611855478893
              ],
              [
                2.3457945610567967,
                41.61185712252255
              ],
              [
                2.345788814700185,
                41.61185800817325
              ],
              [
                2.3457799020521835,
                41.611788423304574
              ],
              [
                2.345779896962271,
                41.61178838746319
              ],
              [
                2.3457652311422525,
                41.611694503944754
              ],
              [
                2.3457441435900908,
                41.61158594339001
              ],
              [
                2.345744139358992,
                41.61158592352912
              ],
              [
                2.345730982594068,
                41.611529110037814
              ],
              [
                2.345715967051183,
                41.61147220918996
              ],
              [
                2.3456906493631027,
                41.61139389490706
              ],
              [
                2.345659334805988,
                41.61131286363797
              ],
              [
                2.34562491215881,
                41.61123317087044
              ],
              [
                2.3455902700830573,
                41.611158872665314
              ],
              [
                2.3455318838241053,
                41.61104268377204
              ],
              [
                2.3455072862503106,
                41.610996743736436
              ]
            ]
          ],
          [
            [
              [
                2.345574821688498,
                41.612618208842164
              ],
              [
                2.3456983958917714,
                41.61255664850255
              ],
              [
                2.3457231913338417,
                41.612536535919034
              ],
              [
                2.34572320530839,
                41.61253652222946
              ],
              [
                2.345742309941673,
                41.61251367268375
              ],
              [
                2.345756425236967,
                41.61248975479093
              ],
              [
                2.3457663057840445,
                41.612466443278876
              ],
              [
                2.3457726948394892,
                41.612445406376686
              ],
              [
                2.345776320928253,
                41.61242834616691
              ],
              [
                2.345776326936315,
                41.61242831234779
              ],
              [
                2.3457779637955567,
                41.6124168613089
              ],
              [
                2.345777966967841,
                41.61241683308993
              ],
              [
                2.345778357701785,
                41.61241263608327
              ],
              [
                2.3457992339951788,
                41.61199323239888
              ],
              [
                2.345804942870145,
                41.611997297634346
              ],
              [
                2.3458103136241593,
                41.61200159590206
              ],
              [
                2.345815246756578,
                41.61200607344836
              ],
              [
                2.3458196448840374,
                41.61201067786246
              ],
              [
                2.3458234079549287,
                41.61201535519894
              ],
              [
                2.345826437819123,
                41.612020052981705
              ],
              [
                2.3458286356191933,
                41.61202471707796
              ],
              [
                2.345829902992264,
                41.61202929513831
              ],
              [
                2.3458087616851677,
                41.61240987908782
              ],
              [
                2.345808025347847,
                41.61241479794984
              ],
              [
                2.3458054919315194,
                41.612428147614686
              ],
              [
                2.345800677477714,
                41.612447818730466
              ],
              [
                2.3457930954815422,
                41.61247170085093
              ],
              [
                2.345782261431623,
                41.61249768443075
              ],
              [
                2.3457676897129796,
                41.61252365953632
              ],
              [
                2.3457488951358374,
                41.61254751598166
              ],
              [
                2.345725392552659,
                41.61256714459748
              ],
              [
                2.3456366724094657,
                41.61261505408137
              ],
              [
                2.3456253424300075,
                41.61261743973119
              ],
              [
                2.345618469904365,
                41.61261853755648
              ],
              [
                2.345610568639817,
                41.61261948917609
              ],
              [
                2.3456019542004767,
                41.61262011535183
              ],
              [
                2.3455929411714185,
                41.61262023690599
              ],
              [
                2.345583845117187,
                41.61261967459935
              ],
              [
                2.345574821688498,
                41.612618208842164
              ]
            ]
          ],
          [
            [
              [
                2.3457651866870806,
                41.6136763418641
              ],
              [
                2.34579642418221,
                41.613675514865115
              ],
              [
                2.3457974996460016,
                41.613675678547736
              ],
              [
                2.345798458251139,
                41.613676145213375
              ],
              [
                2.3457990712012076,
                41.61367677802359
              ],
              [
                2.3457993489024314,
                41.613677593136735
              ],
              [
                2.345810436194854,
                41.613874489774716
              ],
              [
                2.345860314730792,
                41.61426717248838
              ],
              [
                2.3458603365203072,
                41.61426979052016
              ],
              [
                2.3458597210423657,
                41.61427229714885
              ],
              [
                2.345858520798931,
                41.6142746413747
              ],
              [
                2.3458567886051283,
                41.61427677222541
              ],
              [
                2.3458545770504093,
                41.61427863864956
              ],
              [
                2.345851938724249,
                41.61428018959574
              ],
              [
                2.3458489261287023,
                41.614281374064234
              ],
              [
                2.345845730911613,
                41.61428211905392
              ],
              [
                2.3458336534716637,
                41.614283885179404
              ],
              [
                2.345768936725644,
                41.613778125358515
              ],
              [
                2.3457651866870806,
                41.6136763418641
              ]
            ]
          ],
          [
            [
              [
                2.3457724869423933,
                41.612766867482975
              ],
              [
                2.3457726575375992,
                41.612764316821064
              ],
              [
                2.3457732791502783,
                41.61276180460285
              ],
              [
                2.345774604618868,
                41.61275918347401
              ],
              [
                2.345776780726065,
                41.61275697875712
              ],
              [
                2.3457791554181564,
                41.61275496219235
              ],
              [
                2.34578238044534,
                41.61275336273616
              ],
              [
                2.345787160731867,
                41.612752070847385
              ],
              [
                2.3457906271639977,
                41.61275186149084
              ],
              [
                2.3457912365213955,
                41.61275088824795
              ],
              [
                2.345794471846056,
                41.61274774993437
              ],
              [
                2.3457954801502052,
                41.61274715402041
              ],
              [
                2.3458015190925314,
                41.61274511618357
              ],
              [
                2.3458050370777257,
                41.612744568765244
              ],
              [
                2.3458087016670706,
                41.612744547811836
              ],
              [
                2.3458120603333814,
                41.61274501214014
              ],
              [
                2.345815566706262,
                41.61274600331874
              ],
              [
                2.345818316353083,
                41.61274744120891
              ],
              [
                2.345821012917132,
                41.6127492170254
              ],
              [
                2.3458231525665205,
                41.61275162853616
              ],
              [
                2.345823991289994,
                41.61275358424172
              ],
              [
                2.3458262486286356,
                41.61275378187432
              ],
              [
                2.3458284527597812,
                41.61275431698744
              ],
              [
                2.3458323580805356,
                41.61275568549436
              ],
              [
                2.345834257427065,
                41.612756707292306
              ],
              [
                2.3458359056217493,
                41.61275787804109
              ],
              [
                2.3458373012604374,
                41.61275919805214
              ],
              [
                2.3458393878279566,
                41.61276194748898
              ],
              [
                2.345840079948237,
                41.61276337673008
              ],
              [
                2.345840999230926,
                41.61276773414718
              ],
              [
                2.3458399138206056,
                41.612771744099064
              ],
              [
                2.3458412565902322,
                41.61277340191035
              ],
              [
                2.3458425428672567,
                41.61277539343922
              ],
              [
                2.3458432752666383,
                41.612778023536386
              ],
              [
                2.3458431046741888,
                41.61278057419839
              ],
              [
                2.345842483064048,
                41.61278308641698
              ],
              [
                2.3458411575970346,
                41.612785707545946
              ],
              [
                2.34583898149176,
                41.61278791226471
              ],
              [
                2.3458366068003262,
                41.61278992883069
              ],
              [
                2.3458333817726587,
                41.61279152828841
              ],
              [
                2.345828601483442,
                41.61279282017844
              ],
              [
                2.3458264904999746,
                41.61279314812063
              ],
              [
                2.3458252723354236,
                41.61279509479907
              ],
              [
                2.345822845842129,
                41.612797448534685
              ],
              [
                2.345821585193692,
                41.6127981935856
              ],
              [
                2.345815798039244,
                41.61280008209436
              ],
              [
                2.3458124798617317,
                41.61280081849619
              ],
              [
                2.3458092664453014,
                41.61280087935596
              ],
              [
                2.345806106112755,
                41.61280060228878
              ],
              [
                2.345802998808229,
                41.61279998888396
              ],
              [
                2.3457999976700386,
                41.61279869962513
              ],
              [
                2.345797500364373,
                41.61279711259841
              ],
              [
                2.345795307844734,
                41.61279503888742
              ],
              [
                2.3457922939024844,
                41.61279528841153
              ],
              [
                2.345789333380818,
                41.61279520032708
              ],
              [
                2.345786424537249,
                41.61279477462817
              ],
              [
                2.345784020593863,
                41.612794050530376
              ],
              [
                2.345781670105361,
                41.61279298984278
              ],
              [
                2.3457793722735367,
                41.61279159147981
              ],
              [
                2.3457773263587245,
                41.61279004423358
              ],
              [
                2.3457755856560683,
                41.61278801005032
              ],
              [
                2.3457744958167006,
                41.61278620431219
              ],
              [
                2.3457738569056326,
                41.61278443758898
              ],
              [
                2.345773281712712,
                41.612780794401935
              ],
              [
                2.345773599090921,
                41.61277876906144
              ],
              [
                2.345775282890247,
                41.612775324086314
              ],
              [
                2.3457764498389087,
                41.61277371578814
              ],
              [
                2.3457746552549583,
                41.61277201844799
              ],
              [
                2.345773219339696,
                41.612769497580054
              ],
              [
                2.3457724869423933,
                41.612766867482975
              ]
            ]
          ],
          [
            [
              [
                2.345854261964136,
                41.614402688139656
              ],
              [
                2.3458715340587863,
                41.61440235992478
              ],
              [
                2.34587595158588,
                41.614402586729355
              ],
              [
                2.345880140754442,
                41.614403381700726
              ],
              [
                2.3458840214166155,
                41.614404697660405
              ],
              [
                2.345887513636047,
                41.61440648709242
              ],
              [
                2.3458905374213823,
                41.61440870283201
              ],
              [
                2.3458930126613016,
                41.614411297466596
              ],
              [
                2.345894859470142,
                41.61441422366265
              ],
              [
                2.3458959668289707,
                41.61441730089494
              ],
              [
                2.34604565238566,
                41.615080190766136
              ],
              [
                2.3460457506829715,
                41.6150806207938
              ],
              [
                2.346039551389452,
                41.61508329442018
              ],
              [
                2.3460331680912585,
                41.61508557052506
              ],
              [
                2.3460263747102337,
                41.61508754653357
              ],
              [
                2.3460191697134674,
                41.61508921227278
              ],
              [
                2.345854261964136,
                41.614402688139656
              ]
            ]
          ]
        ]
      }
    }
  ]
}
