{
  "type": "FeatureCollection",
  "features": [
    {
      "type": "Feature",
      "geometry": {
        "type": "Point",
        "coordinates": [
          -3.9011146780103454,
          40.518230651018776
        ]
      },
      "properties": {
        "folder_struct": [
          {
            "type": "file",
            "name": "floor.geojson"
          },
          {
            "type": "file",
            "name": "map.geojson"
          },
          {
            "type": "file",
            "name": "mapstack.geojson"
          },
          {
            "type": "file",
            "name": "floorstack.json"
          },
          {
            "type": "file",
            "name": "node.geojson"
          },
          {
            "type": "file",
            "name": "floorImages"
          },
          {
            "type": "folder",
            "name": "space",
            "children": [
              {
                "type": "file",
                "name": "f_5d67417131894200135e375d.geojson"
              }
            ]
          },
          {
            "type": "file",
            "name": "styles.json"
          },
          {
            "type": "folder",
            "name": "enterprise",
            "children": [
              {
                "type": "file",
                "name": "locations.json"
              },
              {
                "type": "file",
                "name": "categories.json"
              },
              {
                "type": "file",
                "name": "venue.json"
              },
              {
                "type": "file",
                "name": "locationInstances.json"
              },
              {
                "type": "file",
                "name": "layers.json"
              },
              {
                "type": "file",
                "name": "categoryPriorities.json"
              },
              {
                "type": "file",
                "name": "enterpriseStyles.json"
              },
              {
                "type": "file",
                "name": "textures.json"
              },
              {
                "type": "file",
                "name": "floorText.json"
              }
            ]
          },
          {
            "type": "file",
            "name": "navigationFlags.json"
          },
          {
            "type": "file",
            "name": "tileset.json"
          }
        ],
        "name": "Las Rozas Village",
        "time": "2026-08-31T17:01:15.371Z",
        "version": "2.0.0",
        "naturalBearing": 36.85958429022128,
        "language": "en",
        "map": "value-retail-las-rozas-village",
        "org_id": "5cf7f722e703fb000f70f917"
      }
    }
  ]
}
