{
  "type": "FeatureCollection",
  "features": [
    {
      "type": "Feature",
      "geometry": {
        "type": "Point",
        "coordinates": [
          10.09122307703365,
          44.883845019208586
        ]
      },
      "properties": {
        "folder_struct": [
          {
            "type": "file",
            "name": "floor.geojson"
          },
          {
            "type": "file",
            "name": "map.geojson"
          },
          {
            "type": "file",
            "name": "mapstack.geojson"
          },
          {
            "type": "file",
            "name": "floorstack.json"
          },
          {
            "type": "file",
            "name": "node.geojson"
          },
          {
            "type": "file",
            "name": "floorImages"
          },
          {
            "type": "folder",
            "name": "space",
            "children": [
              {
                "type": "file",
                "name": "f_5d6402089031f10012f04fdf.geojson"
              }
            ]
          },
          {
            "type": "file",
            "name": "styles.json"
          },
          {
            "type": "file",
            "name": "textAreas"
          },
          {
            "type": "folder",
            "name": "enterprise",
            "children": [
              {
                "type": "file",
                "name": "locations.json"
              },
              {
                "type": "file",
                "name": "categories.json"
              },
              {
                "type": "file",
                "name": "venue.json"
              },
              {
                "type": "file",
                "name": "locationInstances.json"
              },
              {
                "type": "file",
                "name": "layers.json"
              },
              {
                "type": "file",
                "name": "categoryPriorities.json"
              },
              {
                "type": "file",
                "name": "enterpriseStyles.json"
              },
              {
                "type": "file",
                "name": "textures.json"
              },
              {
                "type": "file",
                "name": "floorText.json"
              }
            ]
          },
          {
            "type": "file",
            "name": "navigationFlags.json"
          },
          {
            "type": "file",
            "name": "tileset.json"
          }
        ],
        "name": "Fidenza Village",
        "time": "2026-09-03T09:29:11.638Z",
        "version": "2.0.0",
        "naturalBearing": 0.32326328850172104,
        "language": "en",
        "map": "value-retail-fidenza-village",
        "org_id": "5cf7f722e703fb000f70f917"
      }
    }
  ]
}
