{
  "type": "FeatureCollection",
  "features": [
    {
      "type": "Feature",
      "properties": {
        "id": "f_5bcf767a5cfb9d2424000001",
        "externalId": "MAP-9QXAXZNE",
        "elevation": 0,
        "name": "Mall Map",
        "shortName": "Map"
      },
      "geometry": {
        "type": "MultiPolygon",
        "coordinates": [
          [
            [
              [
                12.533268554127305,
                45.670351127799094
              ],
              [
                12.533670205348932,
                45.66998428953897
              ],
              [
                12.53369986958652,
                45.66999735844621
              ],
              [
                12.533294692534186,
                45.67036604116189
              ],
              [
                12.533268554127305,
                45.670351127799094
              ]
            ]
          ],
          [
            [
              [
                12.533935529007497,
                45.67072024595145
              ],
              [
                12.534094199451582,
                45.67053448239682
              ],
              [
                12.534220557321628,
                45.67039454084963
              ],
              [
                12.534244246519878,
                45.67040447793103
              ],
              [
                12.534128547403215,
                45.67053360615415
              ],
              [
                12.534162116324241,
                45.67049614125034
              ],
              [
                12.53444270828097,
                45.670606287279675
              ],
              [
                12.534455969714893,
                45.67059423778515
              ],
              [
                12.534445943804675,
                45.67059012469696
              ],
              [
                12.534493179725665,
                45.67053350462084
              ],
              [
                12.53446418521721,
                45.67052172021944
              ],
              [
                12.534561334529824,
                45.67040563075155
              ],
              [
                12.534514228250222,
                45.67038616777174
              ],
              [
                12.534723713602627,
                45.6701371526039
              ],
              [
                12.534724438980025,
                45.67013769484154
              ],
              [
                12.534909141501428,
                45.669917051583695
              ],
              [
                12.534908400904254,
                45.66991649990946
              ],
              [
                12.534968463068024,
                45.669843946845205
              ],
              [
                12.534985051544936,
                45.669851056692785
              ],
              [
                12.53502894423445,
                45.66979891808537
              ],
              [
                12.535157601538367,
                45.66974561320397
              ],
              [
                12.535249635772992,
                45.66970861128945
              ],
              [
                12.53538486308616,
                45.66965241207453
              ],
              [
                12.535578534458105,
                45.669648393655166
              ],
              [
                12.535578574852067,
                45.669647485494714
              ],
              [
                12.535684518167788,
                45.66964532328784
              ],
              [
                12.535697225174346,
                45.669645599266964
              ],
              [
                12.535894367080104,
                45.66970944362122
              ],
              [
                12.535896894095353,
                45.66979018098404
              ],
              [
                12.535982292392227,
                45.669817814222256
              ],
              [
                12.53632550378107,
                45.6698095974029
              ],
              [
                12.53660895677771,
                45.66970259489925
              ],
              [
                12.536819543867729,
                45.66997118829068
              ],
              [
                12.537028028154614,
                45.6702440690561
              ],
              [
                12.537056884572193,
                45.67023568520001
              ],
              [
                12.537109998253992,
                45.67019206758932
              ],
              [
                12.537148662875694,
                45.67024290062168
              ],
              [
                12.537126043394197,
                45.670251494117906
              ],
              [
                12.537063790063986,
                45.67025448947356
              ],
              [
                12.53696800037099,
                45.67028889792334
              ],
              [
                12.536953457192398,
                45.67027013310731
              ],
              [
                12.536965252543029,
                45.67026540859943
              ],
              [
                12.53657156425025,
                45.66975351062719
              ],
              [
                12.53649250281881,
                45.669785367893134
              ],
              [
                12.536574652604159,
                45.66989284615111
              ],
              [
                12.536518428092757,
                45.66991401982315
              ],
              [
                12.536603680162626,
                45.670026084612445
              ],
              [
                12.536606481716348,
                45.6700785252661
              ],
              [
                12.536474368625173,
                45.670081117527815
              ],
              [
                12.5364775674047,
                45.67010591037976
              ],
              [
                12.536569827616221,
                45.670135756636355
              ],
              [
                12.536523069885488,
                45.67020357688437
              ],
              [
                12.536887578532426,
                45.67032110292029
              ],
              [
                12.537054687917621,
                45.67053862545217
              ],
              [
                12.537064033267704,
                45.670777915879064
              ],
              [
                12.537059269592278,
                45.67077904578015
              ],
              [
                12.537039640574719,
                45.67080967997763
              ],
              [
                12.537110160287996,
                45.670861513750545
              ],
              [
                12.537099732322451,
                45.67086841447452
              ],
              [
                12.537103597968356,
                45.67087172959071
              ],
              [
                12.537314726788793,
                45.67102813216386
              ],
              [
                12.537421759531167,
                45.67116304878338
              ],
              [
                12.537468762296692,
                45.67114537259621
              ],
              [
                12.537511631903492,
                45.67120139167342
              ],
              [
                12.537495450045398,
                45.67121222895899
              ],
              [
                12.537514383704032,
                45.67123596745554
              ],
              [
                12.537794010893759,
                45.671597068984354
              ],
              [
                12.537974072550668,
                45.67173038079098
              ],
              [
                12.53800142166034,
                45.67174982987849
              ],
              [
                12.537944259364728,
                45.67178791223008
              ],
              [
                12.537976377885364,
                45.67181179502955
              ],
              [
                12.538033325270396,
                45.671773855558705
              ],
              [
                12.538240454841192,
                45.671927277730745
              ],
              [
                12.53827869831034,
                45.67190191917775
              ],
              [
                12.53827878575826,
                45.6719019812607
              ],
              [
                12.538288897060495,
                45.67189514322946
              ],
              [
                12.538340874357498,
                45.671932671846506
              ],
              [
                12.538341209477254,
                45.671932444666815
              ],
              [
                12.538397453525107,
                45.671975874912334
              ],
              [
                12.538851651956332,
                45.67231243117116
              ],
              [
                12.538899590205753,
                45.67257131928283
              ],
              [
                12.538441837229957,
                45.67287356552745
              ],
              [
                12.538388341938651,
                45.67283379102159
              ],
              [
                12.538354164260639,
                45.6728562354587
              ],
              [
                12.538407604028246,
                45.67289596869903
              ],
              [
                12.538200925384777,
                45.67303276534286
              ],
              [
                12.53820247673734,
                45.67303334915856
              ],
              [
                12.538133152081821,
                45.67307944837054
              ],
              [
                12.538141662511629,
                45.67308635241237
              ],
              [
                12.5380322848944,
                45.673158791726
              ],
              [
                12.537816808503866,
                45.67312333937996
              ],
              [
                12.537715788901137,
                45.67318967484006
              ],
              [
                12.537560732900634,
                45.67307438498806
              ],
              [
                12.537515962935101,
                45.673103048743705
              ],
              [
                12.537735411399382,
                45.67325874653134
              ],
              [
                12.537721634382889,
                45.67326839052536
              ],
              [
                12.537512930247884,
                45.67312121303964
              ],
              [
                12.537512325515726,
                45.6731305815427
              ],
              [
                12.537501716826503,
                45.67313055010171
              ],
              [
                12.537502933798052,
                45.67311416357533
              ],
              [
                12.53747490335007,
                45.673094396593434
              ],
              [
                12.537390929955373,
                45.673150893826566
              ],
              [
                12.537383195533806,
                45.67314521124582
              ],
              [
                12.537467532233917,
                45.673089198506
              ],
              [
                12.537435573983974,
                45.67306666165078
              ],
              [
                12.537419157735954,
                45.67306619878209
              ],
              [
                12.537418708303338,
                45.67305874332963
              ],
              [
                12.537424596970862,
                45.673058920696384
              ],
              [
                12.537311905688629,
                45.67297945116608
              ],
              [
                12.537308895313151,
                45.67297604548693
              ],
              [
                12.537305930917874,
                45.67297069634971
              ],
              [
                12.537304991345017,
                45.67296737614583
              ],
              [
                12.537303389563931,
                45.67295222375836
              ],
              [
                12.537453983975375,
                45.67305907468619
              ],
              [
                12.53749891096638,
                45.67302902866059
              ],
              [
                12.537336202764308,
                45.67290865159065
              ],
              [
                12.537398143971934,
                45.67286743331199
              ],
              [
                12.537265492727252,
                45.672769369847046
              ],
              [
                12.537278686328191,
                45.67276070601208
              ],
              [
                12.53695042718972,
                45.67251803147176
              ],
              [
                12.536883362456795,
                45.67255891468531
              ],
              [
                12.536882668431318,
                45.67255842173582
              ],
              [
                12.536842350419096,
                45.67258556204135
              ],
              [
                12.536833004228681,
                45.672590307625285
              ],
              [
                12.536825788698055,
                45.67259286831209
              ],
              [
                12.536817418495835,
                45.67259466067363
              ],
              [
                12.53680829883322,
                45.67259501468601
              ],
              [
                12.53679883494671,
                45.67259325964879
              ],
              [
                12.536789432028332,
                45.67258872599303
              ],
              [
                12.536763528530358,
                45.67256999153575
              ],
              [
                12.536763589147677,
                45.67257137164315
              ],
              [
                12.536753007587487,
                45.67257190131164
              ],
              [
                12.536752673574947,
                45.67256214079302
              ],
              [
                12.536720401012252,
                45.67253879997057
              ],
              [
                12.5366447429812,
                45.67259804544974
              ],
              [
                12.53663641533822,
                45.672592788188105
              ],
              [
                12.536689884903556,
                45.67255145830076
              ],
              [
                12.536713096201359,
                45.67253351683592
              ],
              [
                12.536682830152923,
                45.67251162720573
              ],
              [
                12.536663716217594,
                45.67251210054111
              ],
              [
                12.536662460574245,
                45.672504690237666
              ],
              [
                12.536672908679922,
                45.67250445159523
              ],
              [
                12.536642783327988,
                45.672482663722434
              ],
              [
                12.53663934234967,
                45.672479196072665
              ],
              [
                12.536636427014573,
                45.67247514959826
              ],
              [
                12.536634712844494,
                45.6724707083835
              ],
              [
                12.536634874054,
                45.67246605648615
              ],
              [
                12.536637584862891,
                45.67246137796029
              ],
              [
                12.53664315285996,
                45.67245592620438
              ],
              [
                12.536659783347323,
                45.67244191298095
              ],
              [
                12.53669215293983,
                45.67241700633971
              ],
              [
                12.536693157622826,
                45.672417747091956
              ],
              [
                12.536758260656843,
                45.67237563207538
              ],
              [
                12.536609248353582,
                45.672265246016416
              ],
              [
                12.536666386950062,
                45.67222996117834
              ],
              [
                12.536533138075612,
                45.672130678571456
              ],
              [
                12.536570286797419,
                45.67210574240091
              ],
              [
                12.536437432963549,
                45.67200761232239
              ],
              [
                12.536475001578575,
                45.671983486692284
              ],
              [
                12.536311972694456,
                45.671862819918445
              ],
              [
                12.5361881330406,
                45.67182066335446
              ],
              [
                12.536086405718892,
                45.671789311640254
              ],
              [
                12.535680595692781,
                45.67165726652207
              ],
              [
                12.53567236911459,
                45.671668574632605
              ],
              [
                12.535651303429553,
                45.67169751751283
              ],
              [
                12.535644629014723,
                45.67169674797001
              ],
              [
                12.535635570245532,
                45.67169671765778
              ],
              [
                12.535630667251363,
                45.67169732916904
              ],
              [
                12.535625965537609,
                45.671698572195396
              ],
              [
                12.5356218002875,
                45.671700607631706
              ],
              [
                12.535608331535027,
                45.671710968988876
              ],
              [
                12.53560241237092,
                45.67171635974466
              ],
              [
                12.535782275863063,
                45.67184213528044
              ],
              [
                12.53582840035556,
                45.671814036879354
              ],
              [
                12.535884760530354,
                45.67185111601624
              ],
              [
                12.535838829922149,
                45.671883283865284
              ],
              [
                12.536183119859997,
                45.67212545089014
              ],
              [
                12.536193187548427,
                45.67212908904943
              ],
              [
                12.536199782755483,
                45.672130905232436
              ],
              [
                12.536207226361793,
                45.67213239036149
              ],
              [
                12.536215055548,
                45.672133164228214
              ],
              [
                12.53622280604459,
                45.67213284687084
              ],
              [
                12.53623001662827,
                45.672131058018834
              ],
              [
                12.53624460052122,
                45.67212364105262
              ],
              [
                12.536255876306443,
                45.67211624833219
              ],
              [
                12.536270606546466,
                45.67210498389098
              ],
              [
                12.536288038933026,
                45.67211707491425
              ],
              [
                12.536247391266786,
                45.672140762486094
              ],
              [
                12.536238930462961,
                45.67214311301339
              ],
              [
                12.536229693911142,
                45.672145129719105
              ],
              [
                12.536218310175432,
                45.67214688870909
              ],
              [
                12.53620567275785,
                45.67214777588429
              ],
              [
                12.536192674523395,
                45.67214717689892
              ],
              [
                12.53618020767397,
                45.672144477624535
              ],
              [
                12.53616916636941,
                45.6721390639755
              ],
              [
                12.535548029730624,
                45.671699005424806
              ],
              [
                12.535365988544056,
                45.671585925185944
              ],
              [
                12.535315814398517,
                45.67162913359916
              ],
              [
                12.535307143353853,
                45.671624154910155
              ],
              [
                12.535357979218643,
                45.67158094995782
              ],
              [
                12.53525966304583,
                45.671519877974525
              ],
              [
                12.534964134066065,
                45.67137820051253
              ],
              [
                12.534946997459237,
                45.67137335117512
              ],
              [
                12.534936654138368,
                45.67137182066369
              ],
              [
                12.53492650289451,
                45.6713719732197
              ],
              [
                12.534916785553206,
                45.67137437372866
              ],
              [
                12.534908535752864,
                45.67137979082214
              ],
              [
                12.534852533856673,
                45.67143821936928
              ],
              [
                12.53484758396728,
                45.671441469622636
              ],
              [
                12.534839383902252,
                45.67144576852826
              ],
              [
                12.534828258406483,
                45.67144981733299
              ],
              [
                12.534814240647764,
                45.67145287058074
              ],
              [
                12.534797655373206,
                45.67145362951807
              ],
              [
                12.534778810747637,
                45.67145116811919
              ],
              [
                12.534757231416553,
                45.67144417024758
              ],
              [
                12.533985993511168,
                45.67109009342251
              ],
              [
                12.53398340116268,
                45.67108835818683
              ],
              [
                12.533980066777485,
                45.671085301016234
              ],
              [
                12.533977323856485,
                45.67108095089172
              ],
              [
                12.533975980794771,
                45.67107513883821
              ],
              [
                12.533976579286906,
                45.67106769008448
              ],
              [
                12.533980727826858,
                45.67105845304393
              ],
              [
                12.53398452182112,
                45.67105418281506
              ],
              [
                12.53407330946042,
                45.670925149864395
              ],
              [
                12.534030220839922,
                45.670908855262766
              ],
              [
                12.534035310842912,
                45.67090198443675
              ],
              [
                12.534077956244865,
                45.670918396803806
              ],
              [
                12.534128539305755,
                45.67084488565234
              ],
              [
                12.534131971932736,
                45.670839737017324
              ],
              [
                12.534135195919799,
                45.67083327804002
              ],
              [
                12.534137111294239,
                45.67082623099217
              ],
              [
                12.534136901371417,
                45.67081895121383
              ],
              [
                12.534133749467161,
                45.67081179404497
              ],
              [
                12.534126835403772,
                45.67080572717335
              ],
              [
                12.534106755677866,
                45.67079699898755
              ],
              [
                12.534010450929218,
                45.67075651514352
              ],
              [
                12.533935529007497,
                45.67072024595145
              ]
            ],
            [
              [
                12.53484527738893,
                45.67066110620582
              ],
              [
                12.534872781003239,
                45.67067235556784
              ],
              [
                12.534872803227882,
                45.67067233527528
              ],
              [
                12.53484527738893,
                45.67066110620582
              ]
            ],
            [
              [
                12.53569387626794,
                45.67059186037136
              ],
              [
                12.535754817996326,
                45.67050132496956
              ],
              [
                12.535754817433416,
                45.670501325183515
              ],
              [
                12.535735762124448,
                45.670529462926766
              ],
              [
                12.53569726269824,
                45.67058677281522
              ],
              [
                12.53569387626794,
                45.67059186037136
              ]
            ],
            [
              [
                12.535760647808203,
                45.67085186351161
              ],
              [
                12.535766000056489,
                45.67085757606608
              ],
              [
                12.535761448036487,
                45.670851880890616
              ],
              [
                12.535760647808203,
                45.67085186351161
              ]
            ],
            [
              [
                12.535943669794538,
                45.6715883973215
              ],
              [
                12.536035670954794,
                45.67161893524119
              ],
              [
                12.536257493324133,
                45.67169146717813
              ],
              [
                12.535943669794538,
                45.6715883973215
              ]
            ],
            [
              [
                12.536358147966785,
                45.67038243609191
              ],
              [
                12.536623290319257,
                45.67046902332687
              ],
              [
                12.536586049114682,
                45.670456729043636
              ],
              [
                12.536571752774725,
                45.67045205090876
              ],
              [
                12.536514453408286,
                45.67043339845236
              ],
              [
                12.536493801927485,
                45.67042654336077
              ],
              [
                12.536381052168782,
                45.67038964870237
              ],
              [
                12.536358147966785,
                45.67038243609191
              ]
            ],
            [
              [
                12.536460682730869,
                45.67115639411396
              ],
              [
                12.536667967383263,
                45.671078916470016
              ],
              [
                12.536599136207167,
                45.671104556338484
              ],
              [
                12.536460682730869,
                45.67115639411396
              ]
            ],
            [
              [
                12.536658411883582,
                45.67146456684754
              ],
              [
                12.536744307132915,
                45.67152802928323
              ],
              [
                12.536744307134185,
                45.67152802928416
              ],
              [
                12.536658411883582,
                45.67146456684754
              ]
            ],
            [
              [
                12.536685377492065,
                45.67084004394542
              ],
              [
                12.536689651413912,
                45.67083398069249
              ],
              [
                12.536689676275168,
                45.67083342150933
              ],
              [
                12.536685377492065,
                45.67084004394542
              ]
            ],
            [
              [
                12.537485960481149,
                45.671218796152424
              ],
              [
                12.537502600090423,
                45.67124033939511
              ],
              [
                12.537485970219757,
                45.67121878966142
              ],
              [
                12.537485960481149,
                45.671218796152424
              ]
            ],
            [
              [
                12.537547939967746,
                45.67269547630372
              ],
              [
                12.53761151280669,
                45.672742745647824
              ],
              [
                12.537675110629605,
                45.672789455947324
              ],
              [
                12.537547939967746,
                45.67269547630372
              ]
            ],
            [
              [
                12.537960209092983,
                45.67201495676357
              ],
              [
                12.537960815504933,
                45.67201562625131
              ],
              [
                12.537960871607694,
                45.67201566083944
              ],
              [
                12.537962147267741,
                45.6720163978959
              ],
              [
                12.537960209092983,
                45.67201495676357
              ]
            ],
            [
              [
                12.538264383100158,
                45.672559361682886
              ],
              [
                12.538266708678545,
                45.67256109107455
              ],
              [
                12.53826478288805,
                45.672559370356296
              ],
              [
                12.538264383100158,
                45.672559361682886
              ]
            ],
            [
              [
                12.538290392210579,
                45.6723164864097
              ],
              [
                12.538293241952358,
                45.67231542901711
              ],
              [
                12.538292841991538,
                45.672315420340006
              ],
              [
                12.538290392210579,
                45.6723164864097
              ]
            ],
            [
              [
                12.5383427806874,
                45.67259743851824
              ],
              [
                12.538345131115289,
                45.67259860872481
              ],
              [
                12.538345865155708,
                45.67259812728722
              ],
              [
                12.5383427806874,
                45.67259743851824
              ]
            ],
            [
              [
                12.53870695605078,
                45.67221879650306
              ],
              [
                12.538707603303363,
                45.67221927610237
              ],
              [
                12.538706956050785,
                45.67221879650306
              ],
              [
                12.53870695605078,
                45.67221879650306
              ]
            ]
          ],
          [
            [
              [
                12.534621325947075,
                45.66898191499043
              ],
              [
                12.53464445068666,
                45.66897215752988
              ],
              [
                12.534718513317129,
                45.66906097604744
              ],
              [
                12.534739726338863,
                45.66905071067077
              ],
              [
                12.534749626055744,
                45.66906320642268
              ],
              [
                12.534726986807454,
                45.66907204173348
              ],
              [
                12.53482435418671,
                45.66918359649645
              ],
              [
                12.5348036588951,
                45.66918874317915
              ],
              [
                12.534621325947075,
                45.66898191499043
              ]
            ]
          ],
          [
            [
              [
                12.535854620849136,
                45.67188418639709
              ],
              [
                12.536008772528833,
                45.67177355559978
              ],
              [
                12.536305818730703,
                45.67186544267308
              ],
              [
                12.536120019761821,
                45.672069404785674
              ],
              [
                12.535854620849136,
                45.67188418639709
              ]
            ]
          ],
          [
            [
              [
                12.53610187080073,
                45.66963932208353
              ],
              [
                12.536109301036166,
                45.66963403133806
              ],
              [
                12.53616485119909,
                45.66967593502801
              ],
              [
                12.536165693729282,
                45.66956436325497
              ],
              [
                12.536176915403846,
                45.66956445296212
              ],
              [
                12.536175044183572,
                45.66967587417828
              ],
              [
                12.536232872795098,
                45.66963756515739
              ],
              [
                12.536240832573483,
                45.66964253947359
              ],
              [
                12.536169418347157,
                45.669689588569696
              ],
              [
                12.53610187080073,
                45.66963932208353
              ]
            ]
          ],
          [
            [
              [
                12.536296154052744,
                45.67220319331569
              ],
              [
                12.536297935487458,
                45.672194908568585
              ],
              [
                12.536301160196395,
                45.672187936964576
              ],
              [
                12.536304771213254,
                45.672182581868064
              ],
              [
                12.536308928250099,
                45.67217793384031
              ],
              [
                12.536340396086546,
                45.67215593198424
              ],
              [
                12.53635659428484,
                45.67216794641488
              ],
              [
                12.536339383613777,
                45.67217859286608
              ],
              [
                12.536325413974835,
                45.67218722705683
              ],
              [
                12.536320076388005,
                45.67219645271341
              ],
              [
                12.536317732982551,
                45.672202366374876
              ],
              [
                12.53631623747885,
                45.672208910518854
              ],
              [
                12.53631626804025,
                45.67221561196999
              ],
              [
                12.53631850244573,
                45.67222199725906
              ],
              [
                12.536323618963193,
                45.67222759381337
              ],
              [
                12.536563879319527,
                45.672404352838264
              ],
              [
                12.536556984735713,
                45.67240502674233
              ],
              [
                12.536550660986853,
                45.672404945472536
              ],
              [
                12.536541253452528,
                45.6724042106584
              ],
              [
                12.536534425625167,
                45.67240271344255
              ],
              [
                12.536529211171533,
                45.67240075620303
              ],
              [
                12.536340824047208,
                45.67226092950324
              ],
              [
                12.536310035057387,
                45.67223289517205
              ],
              [
                12.536301147526252,
                45.67222248988451
              ],
              [
                12.53629687284935,
                45.67221248806699
              ],
              [
                12.536296154052744,
                45.67220319331569
              ]
            ]
          ],
          [
            [
              [
                12.536892873991532,
                45.67265177603967
              ],
              [
                12.5368937046191,
                45.672645495256084
              ],
              [
                12.536895787859766,
                45.67263953905854
              ],
              [
                12.536898620582942,
                45.67263414109007
              ],
              [
                12.536901699635925,
                45.6726295356779
              ],
              [
                12.536906584219583,
                45.67262363732825
              ],
              [
                12.536938181180806,
                45.67259960237676
              ],
              [
                12.537293538907512,
                45.67286334444081
              ],
              [
                12.53729337647108,
                45.67286402378501
              ],
              [
                12.537289964201873,
                45.67286704960715
              ],
              [
                12.537278890267599,
                45.672873918740486
              ],
              [
                12.537255748088201,
                45.67288612522138
              ],
              [
                12.537240633969306,
                45.67289165628345
              ],
              [
                12.537226209730227,
                45.67289348556053
              ],
              [
                12.537212883840496,
                45.67289252639821
              ],
              [
                12.537201064087741,
                45.67288969304157
              ],
              [
                12.53719116025327,
                45.67288589864111
              ],
              [
                12.537183580124827,
                45.67288205721084
              ],
              [
                12.537177025489246,
                45.67287788758729
              ],
              [
                12.537177087832855,
                45.672872438364095
              ],
              [
                12.537175309360373,
                45.67286441335739
              ],
              [
                12.537168489212,
                45.67284470737923
              ],
              [
                12.537157610895521,
                45.672819171268614
              ],
              [
                12.536983328456913,
                45.67269138049355
              ],
              [
                12.536935403726043,
                45.67268616120248
              ],
              [
                12.536924185492122,
                45.672683990315896
              ],
              [
                12.536915244794152,
                45.67268125676934
              ],
              [
                12.536908270053223,
                45.67267793193886
              ],
              [
                12.536902949692971,
                45.672673987202295
              ],
              [
                12.53689897213718,
                45.672669393933546
              ],
              [
                12.536896025806817,
                45.67266412351015
              ],
              [
                12.536893799122884,
                45.672658147309534
              ],
              [
                12.536892873991532,
                45.67265177603967
              ]
            ]
          ],
          [
            [
              [
                12.537744109479204,
                45.673283484742875
              ],
              [
                12.537757872420778,
                45.67327415744012
              ],
              [
                12.537806725420191,
                45.6733079847113
              ],
              [
                12.537829416871901,
                45.673322405926044
              ],
              [
                12.53784208031611,
                45.67332945930971
              ],
              [
                12.537854628531644,
                45.67333543902393
              ],
              [
                12.537866315592648,
                45.67333961841112
              ],
              [
                12.537876576652096,
                45.67334224116837
              ],
              [
                12.53788559893625,
                45.673344110181716
              ],
              [
                12.53789376852928,
                45.67334533766458
              ],
              [
                12.537901470203138,
                45.67334603580545
              ],
              [
                12.537909091343753,
                45.67334631684758
              ],
              [
                12.53793532064118,
                45.67334577927087
              ],
              [
                12.537945223365892,
                45.67334479089163
              ],
              [
                12.537954149949313,
                45.67334268283914
              ],
              [
                12.537961995909642,
                45.67333984086883
              ],
              [
                12.537968652855259,
                45.67333665065497
              ],
              [
                12.537974016310054,
                45.673333497958694
              ],
              [
                12.538004066608323,
                45.67331089484707
              ],
              [
                12.538037239870382,
                45.673315345478244
              ],
              [
                12.53799522063217,
                45.67334474714594
              ],
              [
                12.537977931829094,
                45.673352045095584
              ],
              [
                12.537966182716849,
                45.67335612585644
              ],
              [
                12.537952501602604,
                45.67336003353209
              ],
              [
                12.537937525136694,
                45.673363169840904
              ],
              [
                12.537921889970493,
                45.67336493649773
              ],
              [
                12.537906232761378,
                45.673364735221625
              ],
              [
                12.537891514738504,
                45.67336308260182
              ],
              [
                12.537878211494002,
                45.67336092190625
              ],
              [
                12.537866233852556,
                45.673358294465544
              ],
              [
                12.537855490018037,
                45.6733552420104
              ],
              [
                12.537845889505792,
                45.67335180595483
              ],
              [
                12.537837341820753,
                45.67334802794571
              ],
              [
                12.537829755176885,
                45.67334394948244
              ],
              [
                12.537823040388323,
                45.67333961212642
              ],
              [
                12.537744109479204,
                45.673283484742875
              ]
            ]
          ],
          [
            [
              [
                12.538290617185636,
                45.67311051462936
              ],
              [
                12.538960375980905,
                45.67264734165528
              ],
              [
                12.538968758823417,
                45.672638894904196
              ],
              [
                12.538978522556809,
                45.67262753443975
              ],
              [
                12.538991367003103,
                45.67261070282487
              ],
              [
                12.539006812985944,
                45.67258786516869
              ],
              [
                12.539024386183858,
                45.67255848699352
              ],
              [
                12.539043609671127,
                45.67252203304342
              ],
              [
                12.539064006742535,
                45.67247796908981
              ],
              [
                12.539077915390367,
                45.67243001826155
              ],
              [
                12.539080049262179,
                45.67238332915936
              ],
              [
                12.539073466514353,
                45.672339483473756
              ],
              [
                12.539061224098377,
                45.67230006286949
              ],
              [
                12.539046378961983,
                45.67226664899101
              ],
              [
                12.539031990521373,
                45.67224082385864
              ],
              [
                12.539021114664626,
                45.672224168817095
              ],
              [
                12.539016810548123,
                45.67221826556283
              ],
              [
                12.538941920514882,
                45.672140904573176
              ],
              [
                12.53881819634222,
                45.67205166473037
              ],
              [
                12.5388085305048,
                45.672058916820774
              ],
              [
                12.538805148664755,
                45.672055112593505
              ],
              [
                12.538571675801636,
                45.671889004874075
              ],
              [
                12.538504757568653,
                45.67181789813921
              ],
              [
                12.538425304595064,
                45.67169542459458
              ],
              [
                12.538364822899995,
                45.67163087415207
              ],
              [
                12.538310140377819,
                45.671583611576196
              ],
              [
                12.538341316813959,
                45.671566883252076
              ],
              [
                12.538459061020863,
                45.67169274320915
              ],
              [
                12.538516782080164,
                45.67177557089833
              ],
              [
                12.538565999938987,
                45.671839485036855
              ],
              [
                12.538623287489692,
                45.6718870093422
              ],
              [
                12.538738400591159,
                45.67197054080115
              ],
              [
                12.53891390875143,
                45.672090583105614
              ],
              [
                12.538976473852381,
                45.67213950873118
              ],
              [
                12.538991387485437,
                45.6721533607055
              ],
              [
                12.539006978780865,
                45.67216927088462
              ],
              [
                12.539025280702532,
                45.672189922115436
              ],
              [
                12.539044262249702,
                45.67221437770801
              ],
              [
                12.539061888492915,
                45.67224170133813
              ],
              [
                12.539076125808595,
                45.67227095649304
              ],
              [
                12.539084940570268,
                45.67230120665518
              ],
              [
                12.539099382468397,
                45.672382349378914
              ],
              [
                12.539100114218922,
                45.67239466456056
              ],
              [
                12.539100289997343,
                45.67240840342316
              ],
              [
                12.539099682244421,
                45.672425725001254
              ],
              [
                12.539097795098089,
                45.67244552574185
              ],
              [
                12.539094137899681,
                45.67246670242675
              ],
              [
                12.539088216107245,
                45.6724881510763
              ],
              [
                12.539079537743982,
                45.67250876867095
              ],
              [
                12.539057674837503,
                45.67254961852639
              ],
              [
                12.539045875299927,
                45.67257007096491
              ],
              [
                12.539033668249246,
                45.67258977836398
              ],
              [
                12.53902118731292,
                45.67260816818672
              ],
              [
                12.539008559608796,
                45.67262466775507
              ],
              [
                12.538995917448702,
                45.67263870473313
              ],
              [
                12.538983390562354,
                45.672649706271976
              ],
              [
                12.53831195400385,
                45.67311097752132
              ],
              [
                12.538290617185636,
                45.67311051462936
              ]
            ]
          ]
        ]
      }
    }
  ]
}
