{
  "type": "FeatureCollection",
  "features": [
    {
      "type": "Feature",
      "geometry": {
        "type": "Point",
        "coordinates": [
          5.988816,
          51.19983
        ]
      },
      "properties": {
        "folder_struct": [
          {
            "type": "file",
            "name": "connection.json"
          },
          {
            "type": "file",
            "name": "floor.geojson"
          },
          {
            "type": "file",
            "name": "map.geojson"
          },
          {
            "type": "file",
            "name": "mapstack.geojson"
          },
          {
            "type": "file",
            "name": "floorstack.json"
          },
          {
            "type": "file",
            "name": "node.geojson"
          },
          {
            "type": "file",
            "name": "floorImages"
          },
          {
            "type": "folder",
            "name": "space",
            "children": [
              {
                "type": "file",
                "name": "f_59fa1587a10b6d1f6b000000.geojson"
              },
              {
                "type": "file",
                "name": "f_5bcf35357eb6ef6703000006.geojson"
              }
            ]
          },
          {
            "type": "file",
            "name": "styles.json"
          },
          {
            "type": "file",
            "name": "textAreas"
          },
          {
            "type": "folder",
            "name": "enterprise",
            "children": [
              {
                "type": "file",
                "name": "locations.json"
              },
              {
                "type": "file",
                "name": "categories.json"
              },
              {
                "type": "file",
                "name": "venue.json"
              },
              {
                "type": "file",
                "name": "locationInstances.json"
              },
              {
                "type": "file",
                "name": "layers.json"
              },
              {
                "type": "file",
                "name": "categoryPriorities.json"
              },
              {
                "type": "file",
                "name": "enterpriseStyles.json"
              },
              {
                "type": "file",
                "name": "textures.json"
              },
              {
                "type": "file",
                "name": "floorText.json"
              }
            ]
          },
          {
            "type": "file",
            "name": "navigationFlags.json"
          },
          {
            "type": "file",
            "name": "tileset.json"
          }
        ],
        "name": "Roermond",
        "time": "2026-09-03T02:07:40.757Z",
        "version": "2.0.0",
        "naturalBearing": 342.15008086645787,
        "language": "en",
        "map": "mcarthurglen-roermond",
        "org_id": "5ba113222528af00ed87da2f"
      }
    }
  ]
}
